IRIDIUM 8 [+]           
1 24792U 97020A   16213.51072958  .00000115  00000-0  33926-4 0  9996
2 24792  86.3953  92.7741 0002277  83.7579 276.3876 14.34215162  7237
IRIDIUM 7 [+]           
1 24793U 97020B   16213.50439216  .00000120  00000-0  35949-4 0  9993
2 24793  86.3958  93.0422 0002226  83.6900 276.4549 14.34214794  7232
IRIDIUM 6 [+]           
1 24794U 97020C   16213.28865899  .00000028  00000-0  30206-5 0  9998
2 24794  86.3958  93.0703 0002192  83.3779 276.7666 14.34216134  7208
IRIDIUM 5 [+]           
1 24795U 97020D   16213.49170244  .00000120  00000-0  35905-4 0  9998
2 24795  86.3952  93.0155 0002103  86.5691 273.5745 14.34214914  7313
IRIDIUM 4 [-]           
1 24796U 97020E   16213.28786751  .00000099  00000-0  27910-4 0  9994
2 24796  86.3949  92.2355 0002264  85.3578  53.0352 14.35093311  7280
IRIDIUM 914 [-]         
1 24836U 97030A   16213.28987923  .00000096  00000-0  24906-4 0  9993
2 24836  86.3950 109.8536 0003860  84.7992 275.3647 14.38694812  2804
IRIDIUM 12 [+]          
1 24837U 97030B   16213.39467618  .00000158  00000-0  49427-4 0  9994
2 24837  86.3987 124.2261 0002278  84.4206  51.9003 14.34217425   964
IRIDIUM 10 [+]          
1 24839U 97030D   16213.38091619  .00000171  00000-0  53979-4 0  9991
2 24839  86.3986 124.2135 0002297  83.9793  46.8520 14.34217324   977
IRIDIUM 13 [+]          
1 24840U 97030E   16213.37462404  .00000159  00000-0  49670-4 0  9995
2 24840  86.3989 124.3494 0002296  88.2232 271.9227 14.34217868   963
IRIDIUM 16 [-]          
1 24841U 97030F   16213.25828869  .00000108  00000-0  29952-4 0  9999
2 24841  86.4066 124.4477 0000349 181.7853 178.3343 14.36646168  1509
IRIDIUM 911 [-]         
1 24842U 97030G   16213.33315046  .00000088  00000-0  19330-4 0  9993
2 24842  86.4494 125.3901 0016797  77.8580 282.4502 14.44874936  6619
IRIDIUM 15 [+]          
1 24869U 97034A   16213.41607766  .00000200  00000-0  64312-4 0  9994
2 24869  86.3998 156.2081 0002136  79.6852 280.4584 14.34213665997939
IRIDIUM 17 [-]          
1 24870U 97034B   16213.43200651  .00000109  00000-0  31042-4 0  9992
2 24870  86.4007 154.5816 0002552 128.6822 231.4603 14.35687870998140
IRIDIUM 920 [-]         
1 24871U 97034C   16213.42033506  .00000081  00000-0  19512-4 0  9992
2 24871  86.4016 141.5542 0010430 325.5395  34.5126 14.39414593   207
IRIDIUM 18 [+]          
1 24872U 97034D   16213.39705554  .00000124  00000-0  37063-4 0  9997
2 24872  86.4006 156.1663 0002185  83.4048 276.7396 14.34220893997933
IRIDIUM 921 [-]         
1 24873U 97034E   16213.51185436  .00000403  00000-0  22216-4 0  9997
2 24873  86.3920 217.4195 0010124 109.8823 250.3507 15.10600487 39671
IRIDIUM 26 [-]          
1 24903U 97043A   16213.53062692  .00000094  00000-0  25913-4 0  9994
2 24903  86.3950  29.0500 0002024  88.6774 327.2966 14.35205368991983
IRIDIUM 25 [+]          
1 24904U 97043B   16213.48489249 -.00000039  00000-0 -21012-4 0  9997
2 24904  86.3940  29.5093 0001970  83.9822 276.1598 14.34215672991853
IRIDIUM 46 [+]          
1 24905U 97043C   16213.49756839 -.00000034  00000-0 -19101-4 0  9992
2 24905  86.3948  30.0288 0002056  82.9841 277.1589 14.34216374991863
IRIDIUM 23 [+]          
1 24906U 97043D   16213.57331818  .00000061  00000-0  14581-4 0  9993
2 24906  86.3957  29.4713 0002142  85.1537 338.4191 14.34216565991886
IRIDIUM 22 [+]          
1 24907U 97043E   16213.46585062 -.00000035  00000-0 -19455-4 0  9992
2 24907  86.3950  30.1489 0002067  84.4469 275.6962 14.34216376991856
DUMMY MASS 1 [-]        
1 24925U 97048A   16212.91682503  .00000078  00000-0  58424-5 0  9999
2 24925  86.3367 191.5057 0009450  96.2326 263.9975 14.85087286 23668
DUMMY MASS 2 [-]        
1 24926U 97048B   16212.90521709  .00000085  00000-0  66613-5 0  9996
2 24926  86.3365 192.5731 0010213 102.0998 258.1371 14.84855795 23514
IRIDIUM 29 [-]          
1 24944U 97051A   16213.54386639  .00000035  00000-0  54220-5 0  9998
2 24944  86.3932  61.0170 0002512  89.8020 270.3464 14.34587922988453
IRIDIUM 32 [+]          
1 24945U 97051B   16213.49462266 -.00000025  00000-0 -15900-4 0  9996
2 24945  86.3930  61.1840 0002151  80.5152 279.6287 14.34220234988455
IRIDIUM 33 [-]          
1 24946U 97051C   16213.51304706  .00000090  00000-0  25400-4 0  9990
2 24946  86.3846  60.9687 0007085 192.9146 167.1869 14.33501836988096
IRIDIUM 28 [-]          
1 24948U 97051E   16213.55385112  .00000113  00000-0  32481-4 0  9999
2 24948  86.3936  60.4273 0001840  91.0952 269.0455 14.35492607988574
IRIDIUM 30 [+]          
1 24949U 97051F   16213.13942975 -.00000017  00000-0 -13112-4 0  9995
2 24949  86.3932  61.4235 0002135  79.0525 281.0910 14.34220764988381
IRIDIUM 31 [+]          
1 24950U 97051G   16213.55169851  .00000037  00000-0  63048-5 0  9991
2 24950  86.3932  61.2510 0002300  88.0216 272.1243 14.34217080988453
IRIDIUM 19 [+]          
1 24965U 97056A   16213.53608718  .00000129  00000-0  38893-4 0  9991
2 24965  86.3954  92.7725 0002230  84.5002 275.6449 14.34223548986591
IRIDIUM 35 [+]          
1 24966U 97056B   16213.26972647  .00000140  00000-0  42918-4 0  9993
2 24966  86.3954  92.8803 0002220  84.3787 275.7662 14.34215120986536
IRIDIUM 36 [-]          
1 24967U 97056C   16213.08236823  .00000101  00000-0  28222-4 0  9992
2 24967  86.3963  92.2687 0002264  88.4170 271.7285 14.35542339986791
IRIDIUM 37 [+]          
1 24968U 97056D   16213.17456868  .00000126  00000-0  37905-4 0  9991
2 24968  86.3958  93.0972 0002275  84.3352 275.8103 14.34214748986525
IRIDIUM 34 [+]          
1 24969U 97056E   16213.26337002  .00000138  00000-0  42264-4 0  9997
2 24969  86.3957  92.9968 0002253  85.3604 274.7849 14.34214710986530
IRIDIUM 43 [+]          
1 25039U 97069A   16213.39070910  .00000134  00000-0  40789-4 0  9992
2 25039  86.4016 156.0918 0002385  87.2457 272.9012 14.34218914980330
IRIDIUM 41 [+]          
1 25040U 97069B   16213.38435752  .00000122  00000-0  36529-4 0  9996
2 25040  86.4006 156.0571 0002199  82.9374 277.2071 14.34212964980331
IRIDIUM 40 [+]          
1 25041U 97069C   16213.40973904  .00000124  00000-0  37204-4 0  9999
2 25041  86.4012 156.2669 0003080  99.7086 260.4458 14.34218563980351
IRIDIUM 39 [B]          
1 25042U 97069D   16213.43655909  .00000101  00000-0  22633-4 0  9990
2 25042  86.3963 156.0529 0017081 303.8400  56.1176 14.46071413980366
IRIDIUM 38 [-]          
1 25043U 97069E   16213.33509674  .00000061  00000-0  14110-4 0  9993
2 25043  86.4005 153.6503 0001037  99.6362 260.4952 14.35963494980685
IRIDIUM 42 [-]          
1 25077U 97077A   16213.39087168  .00000059  00000-0  13805-4 0  9991
2 25077  86.4008 156.0574 0002119  87.5876 272.5562 14.34493221976207
IRIDIUM 44 [-]          
1 25078U 97077B   16213.37774729  .00000095  00000-0  24745-4 0  9991
2 25078  86.4005 146.4382 0001019 131.0254 229.1032 14.38049318977522
IRIDIUM 45 [+]          
1 25104U 97082A   16213.40581599 -.00000025  00000-0 -15956-4 0  9991
2 25104  86.3928  61.3521 0000932  73.8272 286.3026 14.34216882974399
IRIDIUM 24 [-]          
1 25105U 97082B   16213.52324542  .00000101  00000-0  25738-4 0  9990
2 25105  86.3933  10.8574 0010390 330.3764  29.6845 14.39792036976719
IRIDIUM 47 [+]          
1 25106U 97082C   16213.50391854 -.00000044  00000-0 -22947-4 0  9996
2 25106  86.3937  29.3827 0002079  81.0927 279.0504 14.34215845974406
IRIDIUM 49 [+]          
1 25108U 97082E   16213.45236455 -.00000033  00000-0 -18792-4 0  9998
2 25108  86.3940  29.4985 0002047  82.7089 305.9811 14.34216027974403
IRIDIUM 52 [+]          
1 25169U 98010A   16213.33657383  .00000163  00000-0  51300-4 0  9995
2 25169  86.3991 124.5312 0002274  85.2509 274.8947 14.34218003965796
IRIDIUM 56 [+]          
1 25170U 98010B   16213.33021822  .00000181  00000-0  57663-4 0  9998
2 25170  86.4003 124.6356 0002056  79.6136 280.5292 14.34216749965773
IRIDIUM 54 [+]          
1 25171U 98010C   16213.36192735  .00000163  00000-0  51240-4 0  9999
2 25171  86.3992 124.5399 0002291  85.0693 275.0764 14.34216063965947
IRIDIUM 50 [+]          
1 25172U 98010D   16213.32388863  .00000154  00000-0  47910-4 0  9994
2 25172  86.3991 124.5138 0002375  84.4145 275.7322 14.34217223965773
IRIDIUM 53 [+]          
1 25173U 98010E   16213.34291480  .00000153  00000-0  47626-4 0  9998
2 25173  86.3992 124.5116 0002283  85.1330 275.0127 14.34217324965782
IRIDIUM 51 [S]          
1 25262U 98018A   16213.28873207  .00000144  00000-0  44488-4 0  9994
2 25262  86.3964  93.1704 0002331  80.3510 279.7949 14.34215350965167
IRIDIUM 61 [+]          
1 25263U 98018B   16213.25066724  .00000138  00000-0  42231-4 0  9997
2 25263  86.3956  93.0312 0002229  84.1206 276.0244 14.34223751960867
IRIDIUM 55 [+]          
1 25272U 98019A   16213.18382664 -.00000024  00000-0 -15639-4 0  9992
2 25272  86.3930  61.2244 0002126  80.9869 279.1567 14.34217219960050
IRIDIUM 57 [-]          
1 25273U 98019B   16213.50702061  .00000079  00000-0  21149-4 0  9997
2 25273  86.3935  61.3827 0002297  88.2903 271.8556 14.34228438960101
IRIDIUM 58 [+]          
1 25274U 98019C   16213.51364487 -.00000017  00000-0 -13167-4 0  9990
2 25274  86.3936  61.5682 0002115  78.9919 281.1515 14.34220231960108
IRIDIUM 59 [+]          
1 25275U 98019D   16213.17115550 -.00000027  00000-0 -16787-4 0  9990
2 25275  86.3932  61.5820 0002237  80.8759 279.2690 14.34219037960056
IRIDIUM 60 [+]          
1 25276U 98019E   16213.10771840 -.00000022  00000-0 -14998-4 0  9991
2 25276  86.3928  61.2403 0002109  81.8413 278.3022 14.34220385960048
IRIDIUM 62 [+]          
1 25285U 98021A   16213.48791649  .00000012  00000-0 -26692-5 0  9997
2 25285  86.3973 357.9736 0002130  90.2270 269.9170 14.34210333959052
IRIDIUM 63 [-]          
1 25286U 98021B   16213.38441082  .00000072  00000-0  18560-4 0  9999
2 25286  86.4003 358.4043 0002439  89.5488 325.3293 14.34603539959056
